{
  "norad_id": 49145,
  "name": "STARLINK-3119",
  "history": [
    {
      "epoch": "2026-03-28T17:51:43.466976Z",
      "apogee_km": 574.2531267745917,
      "perigee_km": 569.8201670191283,
      "latitude_deg": -5.634571802939851e-05,
      "longitude_deg": 112.30396201949185,
      "height_km": 574.4401595315925,
      "semi_major_axis_km": 6950.173646896859,
      "eccentricity": 0.00031891,
      "inclination_deg": 70.0006,
      "raan_deg": 206.3954,
      "arg_perigee_deg": 270.625,
      "mean_anomaly_deg": 89.4543,
      "mean_motion_rev_day": 14.98336223
    }
  ]
}