{"fetched_at":"2026-03-29T16:36:15Z","count":15609,"tles":[{"name":"STARLINK-3119","line1":"1 49145U 21082R   26087.74425309  .00000988  00000+0  90558-4 0  9998","line2":"2 49145  70.0006 206.3954 0003189 270.6250  89.4543 14.98336223249818","category":"Starlink"}]}